start=new Date('2022-01-27T00:00:00.000Z').valueOf();
sats=[{"BSTAR":"0.00010583000000","OBJECT_TYPE":"PAYLOAD","REV_AT_EPOCH":"10989","EPOCH":"2022-01-26T11:38:18.020256","PERIOD":"95.592","OBJECT_ID":"2020-006B","COUNTRY_CODE":"US","MEAN_MOTION_DOT":"0.00001295","ELEMENT_SET_NO":"999","CLASSIFICATION_TYPE":"U","GP_ID":"194677353","MEAN_ELEMENT_THEORY":"SGP4","DECAY_DATE":null,"REF_FRAME":"TEME","FILE":"3284266","MEAN_MOTION":"15.06400167","TIME_SYSTEM":"UTC","LAUNCH_DATE":"2020-01-29","OBJECT_NAME":"STARLINK-1120","MEAN_MOTION_DDOT":"0.0000000000000","RA_OF_ASC_NODE":"194.7637","CENTER_NAME":"EARTH","NORAD_CAT_ID":"45045","PERIAPSIS":"545.541","SEMIMAJOR_AXIS":"6925.348","EPHEMERIS_TYPE":"0","MEAN_ANOMALY":"273.5181","RCS_SIZE":"LARGE","TLE_LINE1":"1 45045U 20006B   22026.48493079  .00001295  00000-0  10583-3 0  9999","APOAPSIS":"548.886","INCLINATION":"53.0538","SITE":"AFETR","ARG_OF_PERICENTER":"86.6084","ECCENTRICITY":"0.00024150","TLE_LINE2":"2 45045  53.0538 194.7637 0002415  86.6084 273.5181 15.06400167109899"},{"RCS_SIZE":"LARGE","TLE_LINE1":"1 45046U 20006C   22026.44450984  .00009748  00000-0  61697-3 0  9997","ECCENTRICITY":"0.00017250","TLE_LINE2":"2 45046  52.9957 189.3574 0001725 105.0844 255.0337 15.09588377109932","APOAPSIS":"538.652","SITE":"AFETR","INCLINATION":"52.9957","ARG_OF_PERICENTER":"105.0844","NORAD_CAT_ID":"45046","EPHEMERIS_TYPE":"0","SEMIMAJOR_AXIS":"6915.594","MEAN_ANOMALY":"255.0337","PERIAPSIS":"536.266","DECAY_DATE":null,"REF_FRAME":"TEME","GP_ID":"194678103","MEAN_ELEMENT_THEORY":"SGP4","MEAN_MOTION_DDOT":"0.0000000000000","OBJECT_NAME":"STARLINK-1129","RA_OF_ASC_NODE":"189.3574","CENTER_NAME":"EARTH","FILE":"3284266","MEAN_MOTION":"15.09588377","TIME_SYSTEM":"UTC","LAUNCH_DATE":"2020-01-29","REV_AT_EPOCH":"10993","PERIOD":"95.390","EPOCH":"2022-01-26T10:40:05.650176","OBJECT_TYPE":"PAYLOAD","BSTAR":"0.00061697000000","ELEMENT_SET_NO":"999","CLASSIFICATION_TYPE":"U","OBJECT_ID":"2020-006C","MEAN_MOTION_DOT":"0.00009748","COUNTRY_CODE":"US"},{"EPHEMERIS_TYPE":"0","SEMIMAJOR_AXIS":"6925.333","MEAN_ANOMALY":"273.4046","PERIAPSIS":"545.762","NORAD_CAT_ID":"45047","ECCENTRICITY":"0.00020730","TLE_LINE2":"2 45047  53.0527 194.1605 0002073  86.7180 273.4046 15.06405146109910","ARG_OF_PERICENTER":"86.7180","APOAPSIS":"548.633","SITE":"AFETR","INCLINATION":"53.0527","TLE_LINE1":"1 45047U 20006D   22026.62130775  .00002451  00000-0  18339-3 0  9990","RCS_SIZE":"LARGE","CLASSIFICATION_TYPE":"U","ELEMENT_SET_NO":"999","COUNTRY_CODE":"US","MEAN_MOTION_DOT":"0.00002451","OBJECT_ID":"2020-006D","REV_AT_EPOCH":"10991","PERIOD":"95.592","EPOCH":"2022-01-26T14:54:40.989600","OBJECT_TYPE":"PAYLOAD","BSTAR":"0.00018339000000","RA_OF_ASC_NODE":"194.1605","CENTER_NAME":"EARTH","OBJECT_NAME":"STARLINK-1131","MEAN_MOTION_DDOT":"0.0000000000000","LAUNCH_DATE":"2020-01-29","FILE":"3284266","TIME_SYSTEM":"UTC","MEAN_MOTION":"15.06405146","DECAY_DATE":null,"REF_FRAME":"TEME","MEAN_ELEMENT_THEORY":"SGP4","GP_ID":"194678355"},{"ARG_OF_PERICENTER":"88.5162","APOAPSIS":"548.537","SITE":"AFETR","INCLINATION":"53.0533","ECCENTRICITY":"0.00019080","TLE_LINE2":"2 45048  53.0533 194.7130 0001908  88.5162 271.6046 15.06399304109898","TLE_LINE1":"1 45048U 20006E   22026.49596803  .00000230  00000-0  34351-4 0  9990","RCS_SIZE":"LARGE","PERIAPSIS":"545.894","EPHEMERIS_TYPE":"0","SEMIMAJOR_AXIS":"6925.351","MEAN_ANOMALY":"271.6046","NORAD_CAT_ID":"45048","LAUNCH_DATE":"2020-01-29","FILE":"3284266","MEAN_MOTION":"15.06399304","TIME_SYSTEM":"UTC","RA_OF_ASC_NODE":"194.7130","CENTER_NAME":"EARTH","OBJECT_NAME":"STARLINK-1134","MEAN_MOTION_DDOT":"0.0000000000000","MEAN_ELEMENT_THEORY":"SGP4","GP_ID":"194678605","REF_FRAME":"TEME","DECAY_DATE":null,"COUNTRY_CODE":"US","MEAN_MOTION_DOT":"0.00000230","OBJECT_ID":"2020-006E","ELEMENT_SET_NO":"999","CLASSIFICATION_TYPE":"U","BSTAR":"0.00003435100000","OBJECT_TYPE":"PAYLOAD","REV_AT_EPOCH":"10989","EPOCH":"2022-01-26T11:54:11.637792","PERIOD":"95.592"},{"OBJECT_NAME":"STARLINK-1135","MEAN_MOTION_DDOT":"0.0000000000000","RA_OF_ASC_NODE":"194.7081","CENTER_NAME":"EARTH","MEAN_MOTION":"15.06404731","FILE":"3284266","TIME_SYSTEM":"UTC","LAUNCH_DATE":"2020-01-29","REF_FRAME":"TEME","DECAY_DATE":null,"GP_ID":"194677853","MEAN_ELEMENT_THEORY":"SGP4","CLASSIFICATION_TYPE":"U","ELEMENT_SET_NO":"999","OBJECT_ID":"2020-006F","COUNTRY_CODE":"US","MEAN_MOTION_DOT":"0.00001270","REV_AT_EPOCH":"10989","PERIOD":"95.592","EPOCH":"2022-01-26T11:59:30.979104","BSTAR":"0.00010415000000","OBJECT_TYPE":"PAYLOAD","ECCENTRICITY":"0.00022650","TLE_LINE2":"2 45049  53.0542 194.7081 0002265  81.7659 278.3587 15.06404731109892","APOAPSIS":"548.768","SITE":"AFETR","INCLINATION":"53.0542","ARG_OF_PERICENTER":"81.7659","RCS_SIZE":"LARGE","TLE_LINE1":"1 45049U 20006F   22026.49966411  .00001270  00000-0  10415-3 0  9996","SEMIMAJOR_AXIS":"6925.334","EPHEMERIS_TYPE":"0","MEAN_ANOMALY":"278.3587","PERIAPSIS":"545.630","NORAD_CAT_ID":"45049"},{"CENTER_NAME":"EARTH","RA_OF_ASC_NODE":"194.3700","OBJECT_NAME":"STARLINK-1140","MEAN_MOTION_DDOT":"0.0000000000000","LAUNCH_DATE":"2020-01-29","TIME_SYSTEM":"UTC","FILE":"3284266","MEAN_MOTION":"15.06385591","REF_FRAME":"TEME","DECAY_DATE":null,"MEAN_ELEMENT_THEORY":"SGP4","GP_ID":"194677604","CLASSIFICATION_TYPE":"U","ELEMENT_SET_NO":"999","MEAN_MOTION_DOT":"-0.00000999","COUNTRY_CODE":"US","OBJECT_ID":"2020-006G","PERIOD":"95.593","EPOCH":"2022-01-26T13:45:40.559904","REV_AT_EPOCH":"10990","OBJECT_TYPE":"PAYLOAD","BSTAR":"-0.00004814800000","TLE_LINE2":"2 45050  53.0526 194.3700 0002080  91.4415 268.6812 15.06385591109900","ECCENTRICITY":"0.00020800","ARG_OF_PERICENTER":"91.4415","SITE":"AFETR","INCLINATION":"53.0526","APOAPSIS":"548.698","TLE_LINE1":"1 45050U 20006G   22026.57338611 -.00000999  00000-0 -48148-4 0  9996","RCS_SIZE":"LARGE","MEAN_ANOMALY":"268.6812","SEMIMAJOR_AXIS":"6925.393","EPHEMERIS_TYPE":"0","PERIAPSIS":"545.817","NORAD_CAT_ID":"45050"},{"MEAN_MOTION":"15.07784224","FILE":"3284266","TIME_SYSTEM":"UTC","LAUNCH_DATE":"2020-01-29","OBJECT_NAME":"STARLINK-1141","MEAN_MOTION_DDOT":"0.0000000000000","RA_OF_ASC_NODE":"194.3881","CENTER_NAME":"EARTH","GP_ID":"194678855","MEAN_ELEMENT_THEORY":"SGP4","DECAY_DATE":null,"REF_FRAME":"TEME","OBJECT_ID":"2020-006H","MEAN_MOTION_DOT":"0.00009684","COUNTRY_CODE":"US","ELEMENT_SET_NO":"999","CLASSIFICATION_TYPE":"U","BSTAR":"0.00064376000000","OBJECT_TYPE":"PAYLOAD","REV_AT_EPOCH":"10989","EPOCH":"2022-01-26T10:56:40.709472","PERIOD":"95.504","APOAPSIS":"544.199","INCLINATION":"53.0512","SITE":"AFETR","ARG_OF_PERICENTER":"106.1222","ECCENTRICITY":"0.00017690","TLE_LINE2":"2 45051  53.0512 194.3881 0001769 106.1222 253.9963 15.07784224109898","RCS_SIZE":"LARGE","TLE_LINE1":"1 45051U 20006H   22026.45602673  .00009684  00000-0  64376-3 0  9994","PERIAPSIS":"541.750","EPHEMERIS_TYPE":"0","SEMIMAJOR_AXIS":"6921.109","MEAN_ANOMALY":"253.9963","NORAD_CAT_ID":"45051"},{"NORAD_CAT_ID":"45052","EPHEMERIS_TYPE":"0","SEMIMAJOR_AXIS":"6925.350","MEAN_ANOMALY":"274.5163","PERIAPSIS":"545.560","RCS_SIZE":"LARGE","TLE_LINE1":"1 45052U 20006J   22026.58075022  .00001951  00000-0  14985-3 0  9991","ECCENTRICITY":"0.00023900","TLE_LINE2":"2 45052  53.0531 194.3386 0002390  85.6099 274.5163 15.06399501109906","APOAPSIS":"548.870","INCLINATION":"53.0531","SITE":"AFETR","ARG_OF_PERICENTER":"85.6099","REV_AT_EPOCH":"10990","PERIOD":"95.592","EPOCH":"2022-01-26T13:56:16.819008","OBJECT_TYPE":"PAYLOAD","BSTAR":"0.00014985000000","CLASSIFICATION_TYPE":"U","ELEMENT_SET_NO":"999","OBJECT_ID":"2020-006J","MEAN_MOTION_DOT":"0.00001951","COUNTRY_CODE":"US","DECAY_DATE":null,"REF_FRAME":"TEME","GP_ID":"194679105","MEAN_ELEMENT_THEORY":"SGP4","MEAN_MOTION_DDOT":"0.0000000000000","OBJECT_NAME":"STARLINK-1148","RA_OF_ASC_NODE":"194.3386","CENTER_NAME":"EARTH","MEAN_MOTION":"15.06399501","FILE":"3284266","TIME_SYSTEM":"UTC","LAUNCH_DATE":"2020-01-29"},{"MEAN_MOTION_DOT":"0.00003343","COUNTRY_CODE":"US","OBJECT_ID":"2020-006K","CLASSIFICATION_TYPE":"U","ELEMENT_SET_NO":"999","OBJECT_TYPE":"PAYLOAD","BSTAR":"0.00023018000000","REV_AT_EPOCH":"10990","PERIOD":"95.460","EPOCH":"2022-01-26T10:41:37.494240","LAUNCH_DATE":"2020-01-29","MEAN_MOTION":"15.08486566","FILE":"3284266","TIME_SYSTEM":"UTC","RA_OF_ASC_NODE":"191.8189","CENTER_NAME":"EARTH","MEAN_MOTION_DDOT":"0.0000000000000","OBJECT_NAME":"STARLINK-1155","MEAN_ELEMENT_THEORY":"SGP4","GP_ID":"194677354","DECAY_DATE":null,"REF_FRAME":"TEME","PERIAPSIS":"538.786","EPHEMERIS_TYPE":"0","SEMIMAJOR_AXIS":"6918.961","MEAN_ANOMALY":"254.7349","NORAD_CAT_ID":"45053","ARG_OF_PERICENTER":"105.3966","APOAPSIS":"542.866","SITE":"AFETR","INCLINATION":"52.9995","ECCENTRICITY":"0.00029490","TLE_LINE2":"2 45053  52.9995 191.8189 0002949 105.3966 254.7349 15.08486566109901","TLE_LINE1":"1 45053U 20006K   22026.44557285  .00003343  00000-0  23018-3 0  9997","RCS_SIZE":"LARGE"},{"OBJECT_NAME":"STARLINK-1156","MEAN_MOTION_DDOT":"0.0000000000000","CENTER_NAME":"EARTH","RA_OF_ASC_NODE":"194.9616","MEAN_MOTION":"15.06386786","FILE":"3284266","TIME_SYSTEM":"UTC","LAUNCH_DATE":"2020-01-29","DECAY_DATE":null,"REF_FRAME":"TEME","GP_ID":"194678104","MEAN_ELEMENT_THEORY":"SGP4","ELEMENT_SET_NO":"999","CLASSIFICATION_TYPE":"U","OBJECT_ID":"2020-006L","MEAN_MOTION_DOT":"-0.00000610","COUNTRY_CODE":"US","EPOCH":"2022-01-26T10:39:53.889408","PERIOD":"95.593","REV_AT_EPOCH":"10988","BSTAR":"-0.00002206400000","OBJECT_TYPE":"PAYLOAD","TLE_LINE2":"2 45054  53.0547 194.9616 0002101  79.2905 280.8320 15.06386786109885","ECCENTRICITY":"0.00021010","SITE":"AFETR","INCLINATION":"53.0547","APOAPSIS":"548.709","ARG_OF_PERICENTER":"79.2905","RCS_SIZE":"LARGE","TLE_LINE1":"1 45054U 20006L   22026.44437372 -.00000610  00000-0 -22064-4 0  9999","MEAN_ANOMALY":"280.8320","SEMIMAJOR_AXIS":"6925.389","EPHEMERIS_TYPE":"0","PERIAPSIS":"545.799","NORAD_CAT_ID":"45054"}];
